[Satellite]
VERSION=1.1
NAME=STARLINK-5246
NICKNAME=STARLINK-5246
TLE1=1 54198U 22141AT  22321.58334491  .00068056  00000+0  48600-3 0  9999
TLE2=2 54198  53.2177  42.2269 0002674  23.2097 113.6989 15.73168588  1304
STATUS=0
